CIC_OEM_VERS = 2.0
CREATION_DATE = 2025-05-13T13:35:42.377351
ORIGINATOR = ISAE-SUPAERO


META_START
OBJECT_NAME = Sat
OBJECT_ID = Sat
CENTER_NAME = Earth
REF_FRAME = EME2000
TIME_SYSTEM = UTC
START_TIME = 2025-05-13T00:00:00.000
USEABLE_START_TIME = 2025-05-13T00:00:00.000
USEABLE_STOP_TIME = 2025-05-13T23:55:00.000
STOP_TIME = 2025-05-13T23:55:00.000
INTERPOLATION = lagrange
INTERPOLATION_DEGREE = 5
META_STOP



60808 0.0 3471.9975 2506.4502 5370.3571 -3.7765325 -4.7185518 4.6265523
60808 420.0 1573.5835 329.07124 6671.9502999999995 -5.0999620000000006 -5.4622646999999995 1.4588505
60808 840.0 -659.22894 -1918.1448 6551.4093 -5.3399367 -5.0447223 -2.0237539
60808 1260.0 -2751.4262000000003 -3756.5906 5031.7342 -4.440881500000001 -3.5491505 -5.0838304
60808 1680.0 -4255.328 -4792.220200000001 2435.4433 -2.5878438000000004 -1.2887569 -7.0617062
60808 2100.0 -4846.7346 -4800.0914 -685.22334 -0.17654250999999999 1.2523784 -7.526522600000001
60808 2520.0 -4398.534900000001 -3778.353 -3658.5914 2.2710162 3.5234239 -6.3735442
60808 2940.0 -3009.6756 -1948.7517 -5846.6102 4.2247884 5.0337981 -3.8596217999999998
60808 3360.0 -978.10162 297.44521000000003 -6785.0476 5.273313 5.4681952 -0.5300949500000001
60808 3780.0 1261.6312 2480.5869 -6276.897599999999 5.1990878 4.7397354 2.9052510000000002
60808 4200.0 3233.375 4136.812 -4431.8057 4.020162 3.0041686 5.7218372
60808 4620.0 4517.7573 4913.6502 -1642.1183 1.9846258 0.6274646500000001 7.3212954
60808 5040.0 4840.6485999999995 4644.7579000000005 1497.891 -0.47489265999999997 -1.8846622 7.3592778
60808 5460.0 4133.2391 3387.2127 4318.3268 -2.8319134 -3.9943758 5.8274567
60808 5880.0 2547.0231000000003 1409.4598 6218.1324 -4.5845404 -5.2528344 3.0553603
60808 6300.0 419.61167 -867.77159 6793.1251 -5.3627186 -5.394836000000001 -0.36756737
60808 6720.0 -1796.8591000000001 -2960.2531000000004 5919.442 -5.000457099999999 -4.388313699999999 -3.7188121
60808 7140.0 -3629.252 -4420.907099999999 3781.8855 -3.5699663999999998 -2.4426779 -6.2823398
60808 7560.0 -4686.053 -4936.5267 832.4473399999999 -1.3698377000000002 0.033046991 -7.5063162000000005
60808 7980.0 -4738.3463 -4393.9777 -2295.8907000000004 1.1249931 2.5030033 -7.1179135
60808 8400.0 -3776.0307000000003 -2910.4521 -4931.8382 3.3737315 4.4321695 -5.2034339
60808 8820.0 -2004.6395 -803.1231 -6509.1873 4.8990029999999996 5.413118900000001 -2.1819299
60808 9240.0 192.8198 1474.6547 -6698.0526 5.3752075999999995 5.236821600000001 1.2978438
60808 9660.0 2349.3228 3438.8 -5458.3005 4.7078457 3.9468503 4.4984991
60808 10080.0 4005.9885 4671.351900000001 -3054.2535000000003 3.0377804999999998 1.8157219 6.7416742
60808 10500.0 4809.588400000001 4909.1804 1.965907 0.71914607 -0.70403035 7.5467155
60808 10920.0 4588.6248 4101.2832 3057.593 -1.7517686000000001 -3.0729773000000002 6.740163
60808 11340.0 3391.2037000000005 2420.5989 5461.1461 -3.8462786 -4.7847586 4.4981604
60808 11760.0 1473.2848999999999 225.63119 6701.4659 -5.1213708 -5.4783668 1.3012325
60808 12180.0 -757.45121 -2017.2050000000002 6514.8437 -5.308971 -5.0083674 -2.1748339999999997
60808 12600.0 -2826.6907 -3830.5951 4938.6162 -4.366004299999999 -3.4701239999999998 -5.1958794
60808 13020.0 -4291.960400000001 -4825.8926 2306.0253 -2.4881663 -1.1865307 -7.1133089
60808 13440.0 -4839.482900000001 -4789.1859 -821.5200400000001 -0.071250603 1.3584212 -7.5072913
60808 13860.0 -4349.9830999999995 -3726.1918 -3772.676 2.3588282 3.6103194 -6.2891981
60808 14280.0 -2926.5074 -1863.3158 -5910.746400000001 4.2854247999999995 5.0915226 -3.7248040000000002
60808 14700.0 -876.2832500000001 398.7251 -6780.169900000001 5.2938603 5.4826683 -0.36464026
60808 15120.0 1360.0642 2575.5198 -6202.7579000000005 5.1650393 4.6963898 3.0718909
60808 15540.0 3306.2292 4202.026400000001 -4294.3622000000005 3.9335817000000004 2.9077289 5.850008600000001
60808 15960.0 4545.5904 4930.2379 -1465.445 1.8608258000000002 0.49699567000000006 7.3749487
60808 16380.0 4813.6737 4604.983200000001 1677.6875 -0.60653354 -2.0166666 7.3191424
60808 16800.0 4055.6466 3298.1017 4462.4848 -2.9367246000000002 -4.0929883 5.7017454
60808 17220.0 2435.9775 1290.4242 6297.249900000001 -4.6356007 -5.2939262 2.878679
60808 17640.0 300.48010999999997 -990.58933 6795.3706 -5.350114 -5.3723274000000005 -0.54910808
60808 18060.0 -1898.5027 -3061.9816 5851.9889 -4.9322461 -4.3131659 -3.8632802
60808 18480.0 -3694.6484 -4483.8982000000005 3664.576 -3.4649926 -2.3338731 -6.3658234
60808 18900.0 -4703.777400000001 -4950.8115 695.1696 -1.2524549999999999 0.15165274 -7.5173934000000004
60808 19320.0 -4707.7921 -4359.8713 -2422.9602000000004 1.2343694 2.611726 -7.0593103
60808 19740.0 -3704.0647000000004 -2835.6893999999998 -5020.978 3.4580086999999997 4.5138021 -5.0859322
60808 20160.0 -1907.7113000000002 -704.67978 -6541.8342999999995 4.939790200000001 5.4486213 -2.0243054
60808 20580.0 296.65744 1576.8203999999998 -6658.6809 5.3663464 5.2192487000000005 1.4721616
60808 21000.0 2437.7392000000004 3521.5319 -5349.2076 4.6440665 3.8726685000000005 4.6518553
60808 21420.0 4057.2854 4712.7311 -2891.8056 2.9273441 1.696165 6.8362356
60808 21840.0 4808.4267 4895.2126 186.29505 0.58489267 -0.84240095 7.553274099999999
60808 22260.0 4531.8565 4031.4085 3224.7085 -1.8762365 -3.194607 6.6525365
60808 22680.0 3289.9536000000003 2308.7397 5575.041700000001 -3.9285265 -4.8583262000000005 4.3379133
60808 23100.0 1350.1953 96.239559 6740.0567 -5.1412439999999995 -5.4870773 1.1110293999999998
60808 23520.0 -875.21838 -2136.7354 6475.7008 -5.2651294 -4.954624 -2.3472773000000005
60808 23940.0 -2915.3127999999997 -3917.5265 4837.6943 -4.273841 -3.3715118000000004 -5.31327
60808 24360.0 -4336.6174 -4866.8883 2170.5427000000004 -2.3698582000000004 -1.0653382 -7.1576728
60808 24780.0 -4833.8211 -4779.2988 -959.6904000000001 0.046505694 1.4762648999999999 -7.4771732
60808 25200.0 -4298.3248 -3670.6857000000005 -3884.2164 2.4574289 3.7070537 -6.1945494
60808 25620.0 -2843.714 -1777.1687 -5975.9067000000005 4.3429911 5.1453229 -3.5839591
60808 26040.0 -781.22515 496.23826 -6786.7289 5.2995285 5.4833042999999995 -0.20676577000000002
60808 26460.0 1449.2021000000002 2665.6199 -6148.6377999999995 5.1181883 4.6435694000000005 3.2168164000000004
60808 26880.0 3366.8883 4261.2582999999995 -4188.0734 3.8483137000000003 2.8170671000000005 5.9500789
60808 27300.0 4565.0113 4946.1483 -1329.9115 1.7527197 0.38445769 7.4118555
60808 27720.0 4786.3128 4572.622 1813.6337 -0.71759523 -2.1302138 7.283843200000001
60808 28140.0 3985.1632999999997 3222.3178 4568.3684 -3.0284337 -4.183889000000001 5.5978503
60808 28560.0 2334.4709 1184.8195 6347.8204000000005 -4.688004299999999 -5.3414873 2.7240118000000004
60808 28980.0 187.93851999999998 -1104.4412 6775.7308 -5.3486743 -5.362709300000001 -0.7224641
60808 29400.0 -1998.4443999999999 -3159.4472 5762.6078 -4.8744718 -4.2460032000000005 -4.0151277
60808 29820.0 -3760.3285 -4543.4287 3522.6395 -3.3627812 -2.2240701 -6.458842300000001
60808 30240.0 -4721.1894 -4959.5074 529.9397 -1.1294235000000001 0.27834264000000003 -7.5293215
60808 30660.0 -4674.4947 -4317.2914 -2575.453 1.3477448 2.7241923000000003 -6.9884624
60808 31080.0 -3629.808 -2753.3342000000002 -5129.5071 3.5361930000000004 4.5875523000000005 -4.9522671
60808 31500.0 -1810.8289 -602.01705 -6586.5388 4.9680759 5.4706396 -1.8602178
60808 31920.0 394.05947 1677.6243000000002 -6636.258 5.3408018 5.187714700000001 1.6279149
60808 32340.0 2515.1015 3599.8047 -5267.5047 4.5744589 3.7976444000000003 4.771767700000001
60808 32760.0 4098.8057 4753.1181 -2771.4504 2.8291762 1.5935346 6.8986083
60808 33180.0 4806.0751 4890.072099999999 318.81723 0.47751364 -0.9531616 7.5481635
60808 33600.0 4485.9908 3981.6354 3341.0785 -1.9732535 -3.2931345000000003 6.5803392
60808 34020.0 3206.6242 2221.5329 5648.0778 -3.998361 -4.926931400000001 4.2110795
60808 34440.0 1246.3777 -10.110282999999999 6751.495400000001 -5.1666537 -5.5073086 0.9493444200000001
60808 34860.0 -978.57212 -2239.7241000000004 6417.6875 -5.236830200000001 -4.917999399999999 -2.5099164999999997
60808 35280.0 -2995.7257999999997 -3993.8307999999997 4717.9686 -4.1945674 -3.2832707 -5.4380717999999995
60808 35700.0 -4375.656900000001 -4898.4628 2012.3598000000002 -2.2566721 -0.94553692 -7.212149
60808 36120.0 -4822.1608 -4758.3231 -1122.6594 0.16603072 1.5982539 -7.4480325
60808 36540.0 -4240.2672 -3603.2569 -4018.2641000000003 2.5543331 3.8019119000000003 -6.089347200000001
60808 36960.0 -2753.7848 -1679.451 -6054.4337000000005 4.3951861 5.1923865 -3.4307831
60808 37380.0 -680.5577099999999 602.23924 -6797.2693 5.2981408000000005 5.475656 -0.042419767000000004
60808 37800.0 1537.5856 2755.6419 -6088.4677 5.0726589 4.5923501 3.3567647000000003
60808 38220.0 3427.6809 4321.1732 -4077.3424 3.7638944000000003 2.7269605 6.0443098
60808 38640.0 4585.228700000001 4963.3117999999995 -1193.0055 1.6474278 0.27464343 7.4401352
60808 39060.0 4761.8432 4543.6066 1947.3029 -0.82124259 -2.2363202 7.2404961000000005
60808 39480.0 3921.7505 3153.8207 4670.4653 -3.1087671 -4.2639581 5.4915761000000005
60808 39900.0 2245.4678 1091.3596000000002 6396.1702000000005 -4.7279456 -5.3786819999999995 2.57849
60808 40320.0 92.173263 -1203.0377 6759.8583 -5.3403621999999995 -5.3494897 -0.87745849
60808 40740.0 -2080.6476000000002 -3242.1088 5685.222400000001 -4.8191901 -4.1845213999999995 -4.147870299999999
60808 41160.0 -3811.1495 -4592.052900000001 3399.2758 -3.2711717 -2.126258 -6.5409248
60808 41580.0 -4731.101900000001 -4965.1320000000005 387.20002000000005 -1.023489 0.38812035 -7.5381314
60808 42000.0 -4638.6364 -4275.8022 -2707.4234 1.4433396 2.8218731 -6.9296337999999995
60808 42420.0 -3554.9372000000003 -2672.9036 -5221.1489 3.6055159 4.657016400000001 -4.838991500000001
60808 42840.0 -1714.5693999999999 -500.75621 -6622.1243 4.9937389 5.4934293 -1.7116297999999999
60808 43260.0 490.35487 1777.3928 -6608.6819000000005 5.3154591 5.1582549 1.7738377
60808 43680.0 2590.9383 3677.3943 -5185.375 4.5059689 3.7252643 4.8809449
